#aV2013  6 23  0  0  0.00000000     288 DD+AD WGS84 FIT  NGA
## 1746      0.00000000   300.00000000 56466 0.0000000000000
+   31     1  2  3  4  5  6  7  8  9 10 11 12 13 14 15 16 17
+         18 19 20 21 22 23 24 25 26 27 28 29 31 32  0  0  0
+          0  0  0  0  0  0  0  0  0  0  0  0  0  0  0  0  0
+          0  0  0  0  0  0  0  0  0  0  0  0  0  0  0  0  0
+          0  0  0  0  0  0  0  0  0  0  0  0  0  0  0  0  0
++         2  2  2  2  2  2  2  2  2  2  2  2  2  2  2  2  2
++         2  2  2  2  2  2  2  2  2  2  2  2  2  2  2  0  0
++         0  0  0  0  0  0  0  0  0  0  0  0  0  0  0  0  0
++         0  0  0  0  0  0  0  0  0  0  0  0  0  0  0  0  0
++         0  0  0  0  0  0  0  0  0  0  0  0  0  0  0  0  0
%c cc cc ccc ccc cccc cccc cccc cccc ccccc ccccc ccccc ccccc
%c cc cc ccc ccc cccc cccc cccc cccc ccccc ccccc ccccc ccccc
%f  0.0000000  0.000000000  0.00000000000  0.000000000000000
%f  0.0000000  0.000000000  0.00000000000  0.000000000000000
%i    0    0    0    0      0      0      0      0         0
%i    0    0    0    0      0      0      0      0         0
/*      NGA, ST. LOUIS,MO.                                  
/*   EPHEMERIS COMPUTED FROM  1 DAYS OF DATA
/*   EPOCHA SMOOTHER  
/* CCCCCCCCCCCCCCCCCCCCCCCCCCCCCCCCCCCCCCCCCCCCCCCCCCCCCCCCC
*  2013  6 23  6 40  0.00000000                                                 
P  1  -7126.065287  18917.818001 -17196.122666     40.951407                    
V  1 -19333.595860  10320.393260  19474.688435      0.046724                    
P  2  22583.065633 -13198.075850  -2345.649470    438.363323                    
V  2   -503.321443   5129.842060 -31389.493911      0.018087                    
P  3 -10447.313542  15797.657559  18017.315557    223.674588                    
V  3  -6731.363312 -23241.977547  16230.633999      0.047885                    
P  4  23343.077940  -4293.149679 -12477.943989    253.260343                    
V  4 -11423.721148  10589.240654 -25319.448907      0.102921                    
P  5  17489.456494  -6370.278831  18974.034945   -397.492980                    
V  5  20845.342398  12259.144396 -14936.121444     -0.006775                    
P  6 -14084.863531   9003.928389  20640.747770    175.133619                    
V  6  -4094.513572 -25890.497326   8904.068338     -0.171339                    
P  7   8747.776653  12124.659794  22002.607538    228.202807                    
V  7 -23657.032881  14565.372981   1083.076701      0.042210                    
P  8  18056.548968   4862.438918  19214.313483      6.942272                    
V  8 -21149.364388  11070.170086  16591.117584      0.002322                    
P  9  22059.082297  -3298.643315  13918.896741    249.682302                    
V  9 -14619.547902  11566.610401  24841.936299      0.025107                    
P 10  24689.103901   7972.570165   6336.009901    -84.470226                    
V 10   5985.636567   6520.240953 -29713.356013     -0.013408                    
P 11  -9727.393254  23008.628652  -9075.164339   -394.190278                    
V 11 -10750.457490   5545.928232  27177.712703     -0.035885                    
P 12    800.721672 -15813.083663 -21402.074802    140.878024                    
V 12  23800.280889  12694.718176  -8305.037348      0.021055                    
P 13   5046.373805  24209.405884   9366.796488    106.841316                    
V 13  -2693.960670  11987.037750 -29232.486642     -0.036434                    
P 14 -13985.687666  -8246.601775 -20850.578913    220.078495                    
V 14   1243.045331 -26844.534072   9543.165125     -0.003500                    
P 15   4141.615078 -24717.457927   8365.749752   -124.516866                    
V 15   4234.194366  10462.438738  28972.891323     -0.016206                    
P 16 -17836.763770   4447.409848  19271.053530   -251.042264                    
V 16 -20656.570102 -12919.126209 -15784.629209      0.004140                    
P 17  14170.458355   9116.252248 -20368.666164      6.180795                    
V 17   -587.537266  26291.370162  11008.756736     -0.038261                    
P 18 -19500.668632 -16678.153127   7939.625029    260.063741                    
V 18   9923.156971   1441.574321  28569.553922      0.018480                    
P 19  -8845.774238  22013.338180  11393.505101   -383.251346                    
V 19  -2062.421007 -14864.800946  27311.919462     -0.029826                    
P 20   4746.681358  17901.897104 -19234.069201    105.189362                    
V 20 -22716.461402  -8383.219862 -13457.508015      0.022144                    
P 21 -13271.723386 -10240.628347  21253.613282   -304.625586                    
V 21  21340.011776 -14355.591850   6065.005119     -0.020190                    
P 22 -24483.559519  -9954.426335  -3135.829219    172.764638                    
V 22  -2015.389379  -5314.279730  30502.203482      0.013765                    
P 23    775.970327  26323.818037   -325.163584     73.578284                    
V 23  -3344.625911   -379.225539 -31908.918879     -0.035634                    
P 24  10703.856331 -19375.854388 -14660.422591     -8.728612                    
V 24  16733.302408  -8439.076081  23430.405021     -0.007330                    
P 25 -12415.616733 -17927.708934 -15289.708271    112.984351                    
V 25  17928.936476   7190.427153 -22978.127327      0.047827                    
P 26  12504.530300 -14440.393941  17670.453512     66.051468                    
V 26    637.165462  23865.984622  18711.455177      0.162453                    
P 27 -12639.753085  13463.600589  19082.944220     -3.621493                    
V 27  -2658.891701 -24135.552399  15269.796326     -0.029709                    
P 28  22830.232966  13757.934398    462.263215    269.715137                    
V 28   -879.412938   1741.726410  32131.320781      0.032286                    
P 29  -5504.649182 -24786.113763   7926.553636    447.412617                    
V 29   2395.866760  -9982.966019 -29690.502581      0.033516                    
P 31 -23329.397807   4996.198561 -11794.883640    318.594928                    
V 31  11999.344646  -9337.678191 -27027.085827      0.011519                    
P 32  -5152.895574  14822.424951 -21343.624245   -559.049099                    
V 32 -23310.540697 -14398.770833  -3827.610221      0.001365                    
EOF
